[{"name":"UMBRA-07","l1":"1 58297U 23174AT  26183.61967734  .00010411  00000+0  65424-3 0  9991","l2":"2 58297  97.3787 238.7995 0003656  53.1596 306.9968 15.09422255145743","cat":"other"},{"name":"TIANMU-1 14","l1":"1 58648U 23205D   26183.76913300  .00006117  00000+0  23334-3 0  9994","l2":"2 58648  97.3391 204.2794 0005763 276.8038  83.2545 15.27021255139884","cat":"science"},{"name":"TIANMU-1 19","l1":"1 58660U 23208A   26183.77010602  .00008838  00000+0  29023-3 0  9998","l2":"2 58660  97.4523 300.1523 0003639 251.4329 108.6517 15.31810924139711","cat":"science"},{"name":"TIANMU-1 20","l1":"1 58661U 23208B   26183.79580839  .00009075  00000+0  28703-3 0  9993","l2":"2 58661  97.4465 300.8298 0005605 264.6633  95.3969 15.33000551139815","cat":"science"},{"name":"TIANMU-1 21","l1":"1 58662U 23208C   26183.76045984  .00010425  00000+0  30576-3 0  9990","l2":"2 58662  97.4525 303.5427 0005769 254.8896 105.1709 15.35355461139952","cat":"science"},{"name":"TIANMU-1 22","l1":"1 58663U 23208D   26183.75723877  .00008035  00000+0  26855-3 0  9993","l2":"2 58663  97.4520 300.0621 0002178 287.0394  73.0608 15.31275855139717","cat":"science"},{"name":"TIANMU-1 15","l1":"1 58700U 24004A   26182.84348373  .00008429  00000+0  32265-3 0  9992","l2":"2 58700  97.4664   9.0340 0005689 288.6642  71.3979 15.26798099138013","cat":"science"},{"name":"TIANMU-1 16","l1":"1 58701U 24004B   26183.75132808  .00006023  00000+0  23072-3 0  9992","l2":"2 58701  97.4613   9.1654 0004488 305.4769  54.6050 15.26906876138154","cat":"science"},{"name":"TIANMU-1 17","l1":"1 58702U 24004C   26183.73679494  .00006270  00000+0  24007-3 0  9991","l2":"2 58702  97.4641   9.6415 0004093 313.5589  46.5310 15.26905161138142","cat":"science"},{"name":"TIANMU-1 18","l1":"1 58703U 24004D   26183.77773632  .00005976  00000+0  22950-3 0  9992","l2":"2 58703  97.4658   9.9438 0003410 287.6612  72.4254 15.26824147138159","cat":"science"}]