{
 "generated_at": "2026-07-03T08:09:24Z",
 "sources": [
  {
   "name": "CelesTrak",
   "url": "https://celestrak.org/NORAD/elements/",
   "license": "frei verfügbar; Attribution. Ursprünglich USSPACECOM/Space-Track."
  },
  {
   "name": "GCAT (J. McDowell, planet4589.org)",
   "url": "https://planet4589.org/space/gcat/",
   "license": "CC-BY 4.0"
  }
 ],
 "satellites": [
  {
   "norad": 58648,
   "name": "TIANMU-1 14",
   "intl": "2023-205D",
   "group": "weather",
   "gcat": {
    "class": "B",
    "category": "MET",
    "owner": "TIANMU",
    "state": "CN"
   },
   "omm": {
    "OBJECT_NAME": "TIANMU-1 14",
    "OBJECT_ID": "2023-205D",
    "EPOCH": "2026-07-02T18:27:33.091200",
    "MEAN_MOTION": 15.27021255,
    "ECCENTRICITY": 0.0005763,
    "INCLINATION": 97.3391,
    "RA_OF_ASC_NODE": 204.2794,
    "ARG_OF_PERICENTER": 276.8038,
    "MEAN_ANOMALY": 83.2545,
    "EPHEMERIS_TYPE": 0,
    "CLASSIFICATION_TYPE": "U",
    "NORAD_CAT_ID": 58648,
    "ELEMENT_SET_NO": 999,
    "REV_AT_EPOCH": 13988,
    "BSTAR": 0.00023334,
    "MEAN_MOTION_DOT": 0.00006117,
    "MEAN_MOTION_DDOT": 0
   }
  },
  {
   "norad": 58700,
   "name": "TIANMU-1 15",
   "intl": "2024-004A",
   "group": "weather",
   "gcat": {
    "class": "B",
    "category": "MET",
    "owner": "TIANMU",
    "state": "CN"
   },
   "omm": {
    "OBJECT_NAME": "TIANMU-1 15",
    "OBJECT_ID": "2024-004A",
    "EPOCH": "2026-07-01T20:14:36.994272",
    "MEAN_MOTION": 15.26798099,
    "ECCENTRICITY": 0.00056891,
    "INCLINATION": 97.4664,
    "RA_OF_ASC_NODE": 9.034,
    "ARG_OF_PERICENTER": 288.6642,
    "MEAN_ANOMALY": 71.3979,
    "EPHEMERIS_TYPE": 0,
    "CLASSIFICATION_TYPE": "U",
    "NORAD_CAT_ID": 58700,
    "ELEMENT_SET_NO": 999,
    "REV_AT_EPOCH": 13801,
    "BSTAR": 0.00032265143,
    "MEAN_MOTION_DOT": 0.00008429,
    "MEAN_MOTION_DDOT": 0
   }
  },
  {
   "norad": 58701,
   "name": "TIANMU-1 16",
   "intl": "2024-004B",
   "group": "weather",
   "gcat": {
    "class": "B",
    "category": "MET",
    "owner": "TIANMU",
    "state": "CN"
   },
   "omm": {
    "OBJECT_NAME": "TIANMU-1 16",
    "OBJECT_ID": "2024-004B",
    "EPOCH": "2026-07-02T18:01:54.746112",
    "MEAN_MOTION": 15.26906876,
    "ECCENTRICITY": 0.0004488,
    "INCLINATION": 97.4613,
    "RA_OF_ASC_NODE": 9.1654,
    "ARG_OF_PERICENTER": 305.4769,
    "MEAN_ANOMALY": 54.605,
    "EPHEMERIS_TYPE": 0,
    "CLASSIFICATION_TYPE": "U",
    "NORAD_CAT_ID": 58701,
    "ELEMENT_SET_NO": 999,
    "REV_AT_EPOCH": 13815,
    "BSTAR": 0.00023072,
    "MEAN_MOTION_DOT": 0.00006023,
    "MEAN_MOTION_DDOT": 0
   }
  },
  {
   "norad": 58702,
   "name": "TIANMU-1 17",
   "intl": "2024-004C",
   "group": "weather",
   "gcat": {
    "class": "B",
    "category": "MET",
    "owner": "TIANMU",
    "state": "CN"
   },
   "omm": {
    "OBJECT_NAME": "TIANMU-1 17",
    "OBJECT_ID": "2024-004C",
    "EPOCH": "2026-07-02T17:40:59.082816",
    "MEAN_MOTION": 15.26905161,
    "ECCENTRICITY": 0.0004093,
    "INCLINATION": 97.4641,
    "RA_OF_ASC_NODE": 9.6415,
    "ARG_OF_PERICENTER": 313.5589,
    "MEAN_ANOMALY": 46.531,
    "EPHEMERIS_TYPE": 0,
    "CLASSIFICATION_TYPE": "U",
    "NORAD_CAT_ID": 58702,
    "ELEMENT_SET_NO": 999,
    "REV_AT_EPOCH": 13814,
    "BSTAR": 0.00024007,
    "MEAN_MOTION_DOT": 0.0000627,
    "MEAN_MOTION_DDOT": 0
   }
  },
  {
   "norad": 58703,
   "name": "TIANMU-1 18",
   "intl": "2024-004D",
   "group": "weather",
   "gcat": {
    "class": "B",
    "category": "MET",
    "owner": "TIANMU",
    "state": "CN"
   },
   "omm": {
    "OBJECT_NAME": "TIANMU-1 18",
    "OBJECT_ID": "2024-004D",
    "EPOCH": "2026-07-02T18:39:56.418048",
    "MEAN_MOTION": 15.26824147,
    "ECCENTRICITY": 0.000341,
    "INCLINATION": 97.4658,
    "RA_OF_ASC_NODE": 9.9438,
    "ARG_OF_PERICENTER": 287.6612,
    "MEAN_ANOMALY": 72.4254,
    "EPHEMERIS_TYPE": 0,
    "CLASSIFICATION_TYPE": "U",
    "NORAD_CAT_ID": 58703,
    "ELEMENT_SET_NO": 999,
    "REV_AT_EPOCH": 13815,
    "BSTAR": 0.0002295,
    "MEAN_MOTION_DOT": 0.00005976,
    "MEAN_MOTION_DDOT": 0
   }
  },
  {
   "norad": 58660,
   "name": "TIANMU-1 19",
   "intl": "2023-208A",
   "group": "weather",
   "gcat": {
    "class": "B",
    "category": "MET",
    "owner": "TIANMU",
    "state": "CN"
   },
   "omm": {
    "OBJECT_NAME": "TIANMU-1 19",
    "OBJECT_ID": "2023-208A",
    "EPOCH": "2026-07-02T18:28:57.160128",
    "MEAN_MOTION": 15.31810924,
    "ECCENTRICITY": 0.0003639,
    "INCLINATION": 97.4523,
    "RA_OF_ASC_NODE": 300.1523,
    "ARG_OF_PERICENTER": 251.4329,
    "MEAN_ANOMALY": 108.6517,
    "EPHEMERIS_TYPE": 0,
    "CLASSIFICATION_TYPE": "U",
    "NORAD_CAT_ID": 58660,
    "ELEMENT_SET_NO": 999,
    "REV_AT_EPOCH": 13971,
    "BSTAR": 0.00029023,
    "MEAN_MOTION_DOT": 0.00008838,
    "MEAN_MOTION_DDOT": 0
   }
  },
  {
   "norad": 58661,
   "name": "TIANMU-1 20",
   "intl": "2023-208B",
   "group": "weather",
   "gcat": {
    "class": "B",
    "category": "MET",
    "owner": "TIANMU",
    "state": "CN"
   },
   "omm": {
    "OBJECT_NAME": "TIANMU-1 20",
    "OBJECT_ID": "2023-208B",
    "EPOCH": "2026-07-02T19:05:57.844896",
    "MEAN_MOTION": 15.33000551,
    "ECCENTRICITY": 0.0005605,
    "INCLINATION": 97.4465,
    "RA_OF_ASC_NODE": 300.8298,
    "ARG_OF_PERICENTER": 264.6633,
    "MEAN_ANOMALY": 95.3969,
    "EPHEMERIS_TYPE": 0,
    "CLASSIFICATION_TYPE": "U",
    "NORAD_CAT_ID": 58661,
    "ELEMENT_SET_NO": 999,
    "REV_AT_EPOCH": 13981,
    "BSTAR": 0.00028703,
    "MEAN_MOTION_DOT": 0.00009075,
    "MEAN_MOTION_DDOT": 0
   }
  },
  {
   "norad": 58662,
   "name": "TIANMU-1 21",
   "intl": "2023-208C",
   "group": "weather",
   "gcat": {
    "class": "B",
    "category": "MET",
    "owner": "TIANMU",
    "state": "CN"
   },
   "omm": {
    "OBJECT_NAME": "TIANMU-1 21",
    "OBJECT_ID": "2023-208C",
    "EPOCH": "2026-07-02T18:15:03.730176",
    "MEAN_MOTION": 15.35355461,
    "ECCENTRICITY": 0.0005769,
    "INCLINATION": 97.4525,
    "RA_OF_ASC_NODE": 303.5427,
    "ARG_OF_PERICENTER": 254.8896,
    "MEAN_ANOMALY": 105.1709,
    "EPHEMERIS_TYPE": 0,
    "CLASSIFICATION_TYPE": "U",
    "NORAD_CAT_ID": 58662,
    "ELEMENT_SET_NO": 999,
    "REV_AT_EPOCH": 13995,
    "BSTAR": 0.00030576,
    "MEAN_MOTION_DOT": 0.00010425,
    "MEAN_MOTION_DDOT": 0
   }
  },
  {
   "norad": 58663,
   "name": "TIANMU-1 22",
   "intl": "2023-208D",
   "group": "weather",
   "gcat": {
    "class": "B",
    "category": "MET",
    "owner": "TIANMU",
    "state": "CN"
   },
   "omm": {
    "OBJECT_NAME": "TIANMU-1 22",
    "OBJECT_ID": "2023-208D",
    "EPOCH": "2026-07-02T18:10:25.429728",
    "MEAN_MOTION": 15.31275855,
    "ECCENTRICITY": 0.0002178,
    "INCLINATION": 97.452,
    "RA_OF_ASC_NODE": 300.0621,
    "ARG_OF_PERICENTER": 287.0394,
    "MEAN_ANOMALY": 73.0608,
    "EPHEMERIS_TYPE": 0,
    "CLASSIFICATION_TYPE": "U",
    "NORAD_CAT_ID": 58663,
    "ELEMENT_SET_NO": 999,
    "REV_AT_EPOCH": 13971,
    "BSTAR": 0.00026855,
    "MEAN_MOTION_DOT": 0.00008035,
    "MEAN_MOTION_DDOT": 0
   }
  },
  {
   "norad": 58297,
   "name": "UMBRA-07",
   "intl": "2023-174AT",
   "group": "sar",
   "gcat": {
    "class": "B",
    "category": "IMG-R",
    "owner": "UMBRA",
    "state": "US"
   },
   "omm": {
    "OBJECT_NAME": "UMBRA-07",
    "OBJECT_ID": "2023-174AT",
    "EPOCH": "2026-07-02T14:52:20.122176",
    "MEAN_MOTION": 15.09422255,
    "ECCENTRICITY": 0.0003656,
    "INCLINATION": 97.3787,
    "RA_OF_ASC_NODE": 238.7995,
    "ARG_OF_PERICENTER": 53.1596,
    "MEAN_ANOMALY": 306.9968,
    "EPHEMERIS_TYPE": 0,
    "CLASSIFICATION_TYPE": "U",
    "NORAD_CAT_ID": 58297,
    "ELEMENT_SET_NO": 999,
    "REV_AT_EPOCH": 14574,
    "BSTAR": 0.00065424,
    "MEAN_MOTION_DOT": 0.00010411,
    "MEAN_MOTION_DDOT": 0
   }
  }
 ]
}
